CS1                     
1 49261U 21088B   26068.75173904  .00015722  00000+0  51176-3 0  9998
2 49261  97.3882 132.1684 0014129  78.0335 282.2490 15.31848439245182
STARLINK-30295          
1 57683U 23124W   26068.68963448 -.00000435  00000+0 -25683-5 0  9993
2 57683  53.1601 207.0693 0001010 107.1458 252.9653 15.30187499143560
